{
"type": "FeatureCollection",
"name": "ahmedabad_integrated_facilities",
"crs": { "type": "name", "properties": { "name": "urn:ogc:def:crs:EPSG::32643" } },
"features": [
{ "type": "Feature", "properties": { "facility_id": "WARD_OFFICE_001", "facility_name": "New Muster Office Danilimda", "facility_type": "Ward Office", "address": "New Muster Office Danilimda - Nr Danilimda Road", "latitude": "22.9924866", "longitude": "72.5844166", "ward_id": "36", "ward_name": "DANILIMDA" }, "geometry": { "type": "Point", "coordinates": [ 252382.302558892057277, 2544727.752551817335188, 0.0 ] } },
{ "type": "Feature", "properties": { "facility_id": "WARD_OFFICE_002", "facility_name": "Naroda Road , SubZonal Office", "facility_type": "Ward Office", "address": "SubZonal Office,\nNr. Ashok Mill\nNaroad", "latitude": "23.0362944", "longitude": "72.6062386", "ward_id": "22", "ward_name": "INDIA COLONY" }, "geometry": { "type": "Point", "coordinates": [ 254699.464075793744996, 2549543.523389973212034, 0.0 ] } },
{ "type": "Feature", "properties": { "facility_id": "WARD_OFFICE_003", "facility_name": "Nikol New Office", "facility_type": "Ward Office", "address": "Nikol New Office  sub zone", "latitude": "23.0533839", "longitude": "72.6693675", "ward_id": "24", "ward_name": "NIKOL" }, "geometry": { "type": "Point", "coordinates": [ 261201.278288302739384, 2551331.961887448094785, 0.0 ] } },
{ "type": "Feature", "properties": { "facility_id": "WARD_OFFICE_004", "facility_name": "Ramol-Subzone Muster Office", "facility_type": "Ward Office", "address": "Ramol Nr, Jama Masjid Road Ramol", "latitude": "22.9785507", "longitude": "72.656402", "ward_id": "48", "ward_name": "RAMOL HATHIJAN" }, "geometry": { "type": "Point", "coordinates": [ 259739.668430077435914, 2543064.32525909692049, 0.0 ] } },
{ "type": "Feature", "properties": { "facility_id": "WARD_OFFICE_005", "facility_name": "Shahibaug Ward Office", "facility_type": "Ward Office", "address": "Girdharnagar Ward Office, Near. Civil Hospital, Ahmedabad.", "latitude": "23.051791", "longitude": "72.599129", "ward_id": "16", "ward_name": "SHAHIBAG" }, "geometry": { "type": "Point", "coordinates": [ 253998.782934602670139, 2551271.994769628625363, 0.0 ] } },
{ "type": "Feature", "properties": { "facility_id": "WARD_OFFICE_006", "facility_name": "Lambha Ward Office", "facility_type": "Ward Office", "address": "1, National Highway 8, Narolgam, Ahmedabad, Gujarat", "latitude": "22.961994", "longitude": "72.591557", "ward_id": "46", "ward_name": "LAMBHA" }, "geometry": { "type": "Point", "coordinates": [ 253059.099410044931574, 2541338.103678852785379, 0.0 ] } },
{ "type": "Feature", "properties": { "facility_id": "WARD_OFFICE_007", "facility_name": "Thakkarbapa Nagar Ward Office", "facility_type": "Ward Office", "address": "Thakkarbapa Nagar Ward Office", "latitude": "23.047155", "longitude": "72.643415", "ward_id": "23", "ward_name": "THAKKARBAPANAGAR" }, "geometry": { "type": "Point", "coordinates": [ 258530.003037519374629, 2550684.645723731257021, 0.0 ] } },
{ "type": "Feature", "properties": { "facility_id": "WARD_OFFICE_008", "facility_name": "Khadia Sub Zonal Office", "facility_type": "Ward Office", "address": "Near, Panchkuwa road, Ahmedabad", "latitude": "23.024967", "longitude": "72.597174", "ward_id": "28", "ward_name": "KHADIA" }, "geometry": { "type": "Point", "coordinates": [ 253749.591928291512886, 2548304.038187243510038, 0.0 ] } },
{ "type": "Feature", "properties": { "facility_id": "WARD_OFFICE_009", "facility_name": "Navrangpura", "facility_type": "Ward Office", "address": "5, Navrangpura Marg, Swastik Society, Navrangpura, Ahmedabad, Gujarat 380009, India", "latitude": "23.036283", "longitude": " 72.56300099999999", "ward_id": "18", "ward_name": "NAVRANGPURA" }, "geometry": { "type": "Point", "coordinates": [ 250266.822717291011941, 2549615.426745102275163, 0.0 ] } },
{ "type": "Feature", "properties": { "facility_id": "WARD_OFFICE_010", "facility_name": "Raikhad", "facility_type": "Ward Office", "address": "Raikhad Cahar Nadika Daravaj Road, Raikhad,", "latitude": "23.0192512", "longitude": " 72.5802711", "ward_id": "29", "ward_name": "JAMALPUR" }, "geometry": { "type": "Point", "coordinates": [ 252006.140086590661667, 2547699.447805907111615, 0.0 ] } },
{ "type": "Feature", "properties": { "facility_id": "WARD_OFFICE_011", "facility_name": "Krushnanagar Ward office", "facility_type": "Ward Office", "address": "Krushnanagar Ward Office, Near, Saijpur tower", "latitude": "23.0607525", "longitude": " 72.63904619999994", "ward_id": "13", "ward_name": "SAIJPUR BOGHA" }, "geometry": { "type": "Point", "coordinates": [ 258106.490084686985938, 2552198.009495943319052, 0.0 ] } },
{ "type": "Feature", "properties": { "facility_id": "WARD_OFFICE_012", "facility_name": "Saijpur", "facility_type": "Ward Office", "address": "Urban Health Center, Bhargav Road, Saijpur Bogha, Ahmedabad, Gujarat", "latitude": "23.0617152", "longitude": " 72.62786600000004", "ward_id": "14", "ward_name": "KUBERNAGR" }, "geometry": { "type": "Point", "coordinates": [ 256962.287867620208999, 2552323.195510384626687, 0.0 ] } },
{ "type": "Feature", "properties": { "facility_id": "WARD_OFFICE_013", "facility_name": "Vasna", "facility_type": "Ward Office", "address": "Near Swaminarayan school, Vasna", "latitude": "23.000582", "longitude": "72.550185", "ward_id": "31", "ward_name": "VASNA" }, "geometry": { "type": "Point", "coordinates": [ 248886.777027573960368, 2545682.740459221880883, 0.0 ] } },
{ "type": "Feature", "properties": { "facility_id": "WARD_OFFICE_014", "facility_name": "Paldi", "facility_type": "Ward Office", "address": "Paldi Ward office", "latitude": "23.0142474", "longitude": " 72.56189700000004", "ward_id": "30", "ward_name": "PALDI" }, "geometry": { "type": "Point", "coordinates": [ 250112.990783761721104, 2547176.425892002414912, 0.0 ] } },
{ "type": "Feature", "properties": { "facility_id": "WARD_OFFICE_015", "facility_name": "Maktampura", "facility_type": "Ward Office", "address": "Makampura office, Near Rehnuma Society, Vishala", "latitude": "22.994938", "longitude": " 72.53297880000002", "ward_id": "34", "ward_name": "MAKTAMPURA" }, "geometry": { "type": "Point", "coordinates": [ 247111.807356802280992, 2545087.14677953440696, 0.0 ] } },
{ "type": "Feature", "properties": { "facility_id": "WARD_OFFICE_016", "facility_name": "Bhaipura", "facility_type": "Ward Office", "address": "Bhaipura, Hatkeshwar\nAhmedabad, Gujarat 380008", "latitude": "22.992365", "longitude": "72.6251", "ward_id": "43", "ward_name": "BHAIPURA HATKESHWAR" }, "geometry": { "type": "Point", "coordinates": [ 256554.162037469766801, 2544646.11551409214735, 0.0 ] } },
{ "type": "Feature", "properties": { "facility_id": "WARD_OFFICE_017", "facility_name": "Maninagar Master office", "facility_type": "Ward Office", "address": "Near Maninagar Railway station , maninagar", "latitude": "22.999099", "longitude": "72.61031", "ward_id": "37", "ward_name": "MANINAGAR" }, "geometry": { "type": "Point", "coordinates": [ 255049.618743983126478, 2545416.668003028258681, 0.0 ] } },
{ "type": "Feature", "properties": { "facility_id": "WARD_OFFICE_018", "facility_name": "Thaltej", "facility_type": "Ward Office", "address": "Near Thaltej lake, Ahmedabad", "latitude": "23.050203", "longitude": "72.512842", "ward_id": "08", "ward_name": "THALTEJ" }, "geometry": { "type": "Point", "coordinates": [ 245150.72801486714161, 2551243.912968831136823, 0.0 ] } },
{ "type": "Feature", "properties": { "facility_id": "WARD_OFFICE_019", "facility_name": "Khohra Sub Zone Office", "facility_type": "Ward Office", "address": "Sanatan Society Road , Khokhra , Ahmedabad - 380008 , Gujar", "latitude": "22.9987844", "longitude": " 72.61791779999999", "ward_id": "44", "ward_name": "KHOKHRA" }, "geometry": { "type": "Point", "coordinates": [ 255829.189475600869628, 2545369.120496373157948, 0.0 ] } },
{ "type": "Feature", "properties": { "facility_id": "WARD_OFFICE_020", "facility_name": "Ghtalodiya", "facility_type": "Ward Office", "address": "Opposite Preet Residency, Below Chanakypuri Bridge, Ghatlodiya 380061", "latitude": "23.0714785", "longitude": " 72.54242750000003", "ward_id": "07", "ward_name": "GHATLODIA" }, "geometry": { "type": "Point", "coordinates": [ 248223.164573850110173, 2553549.36304047331214, 0.0 ] } },
{ "type": "Feature", "properties": { "facility_id": "WARD_OFFICE_021", "facility_name": "Ranip", "facility_type": "Ward Office", "address": "Old Nagarpalika Bldg.,Opp. Mahesh Party Plot,Ahmedabad.-382470", "latitude": "23.079909", "longitude": "72.574228", "ward_id": "05", "ward_name": "RANIP" }, "geometry": { "type": "Point", "coordinates": [ 251497.97977439101669, 2554428.745541064534336, 0.0 ] } },
{ "type": "Feature", "properties": { "facility_id": "WARD_OFFICE_022", "facility_name": "Gota Ward Office", "facility_type": "Ward Office", "address": "9/10, Gota Gam Road, Gota, Ahmedabad, Gujarat 382481, India", "latitude": "23.098718", "longitude": "72.537268", "ward_id": "01", "ward_name": "GOTA" }, "geometry": { "type": "Point", "coordinates": [ 247745.235058555961587, 2556575.646895432379097, 0.0 ] } },
{ "type": "Feature", "properties": { "facility_id": "WARD_OFFICE_023", "facility_name": "Bodakdev Ward Office", "facility_type": "Ward Office", "address": "Memnagar Road, Memnagar, Ahmedabad, Gujarat 380052, India", "latitude": "23.048554", "longitude": "72.539243", "ward_id": "19", "ward_name": "BODAKDEV" }, "geometry": { "type": "Point", "coordinates": [ 247854.028666012862232, 2551015.467360319104046, 0.0 ] } },
{ "type": "Feature", "properties": { "facility_id": "WARD_OFFICE_024", "facility_name": "Sarkhej", "facility_type": "Ward Office", "address": "Sarkhej Village Road, Sarkhej, Ahmedabad, Gujarat 380055, India", "latitude": "22.980873", "longitude": "72.502141", "ward_id": "33", "ward_name": "SARKHEJ" }, "geometry": { "type": "Point", "coordinates": [ 243922.765044668223709, 2543582.683134695049375, 0.0 ] } },
{ "type": "Feature", "properties": { "facility_id": "WARD_OFFICE_025", "facility_name": "Vejalpur", "facility_type": "Ward Office", "address": "Jaltarang Society, 9B, Vejalpur Road, Jignasa Society, Vibhavari Society, Jivrajpark, Ahmedabad, Gujarat 380051, India", "latitude": "23.0039624", "longitude": " 72.52326160000007", "ward_id": "32", "ward_name": "VEJALPUR" }, "geometry": { "type": "Point", "coordinates": [ 246132.182778098765993, 2546103.603773823007941, 0.0 ] } },
{ "type": "Feature", "properties": { "facility_id": "WARD_OFFICE_026", "facility_name": "Jodhpur", "facility_type": "Ward Office", "address": "10, Jodhpur Village, Jodhpur, Ahmedabad, Gujarat 380015, India", "latitude": "23.016724", "longitude": "72.520452", "ward_id": "20", "ward_name": "JODHPUR" }, "geometry": { "type": "Point", "coordinates": [ 245867.999660493951524, 2547522.109247569926083, 0.0 ] } },
{ "type": "Feature", "properties": { "facility_id": "WARD_OFFICE_027", "facility_name": "Stadium", "facility_type": "Ward Office", "address": "45, Somnath Road, Shanti Nagar, Usmanpura, Ahmedabad, Gujarat 380013, India", "latitude": "23.049202", "longitude": " 72.56431599999996", "ward_id": "09", "ward_name": "NARANPURA" }, "geometry": { "type": "Point", "coordinates": [ 250425.461264695419231, 2551044.2222277703695, 0.0 ] } },
{ "type": "Feature", "properties": { "facility_id": "WARD_OFFICE_028", "facility_name": "New Wadaj", "facility_type": "Ward Office", "address": "32, New Wadaj Road, Bhimjipura, Nava Vadaj, Ahmedabad, Gujarat 380013, India", "latitude": "23.062522", "longitude": "72.565108", "ward_id": "06", "ward_name": "NEW WADAJ" }, "geometry": { "type": "Point", "coordinates": [ 250531.21944957919186, 2552518.330667077563703, 0.0 ] } },
{ "type": "Feature", "properties": { "facility_id": "WARD_OFFICE_029", "facility_name": "Sabarmati", "facility_type": "Ward Office", "address": "AMTS Bus Stand, Dharm Nagar II, Sabarmati, Ahmedabad, Gujarat 380005, India", "latitude": "23.0742044", "longitude": " 72.59247419999997", "ward_id": "04", "ward_name": "SABARMATI" }, "geometry": { "type": "Point", "coordinates": [ 253357.521800552320201, 2553765.915288405027241, 0.0 ] } },
{ "type": "Feature", "properties": { "facility_id": "WARD_OFFICE_030", "facility_name": "Chandkheda", "facility_type": "Ward Office", "address": "1, Nigam Nagar, Chandkheda, Ahmedabad, Gujarat 382424, India", "latitude": "23.108351", "longitude": " 72.59265600000003", "ward_id": "03", "ward_name": "CHANDKHEDA" }, "geometry": { "type": "Point", "coordinates": [ 253438.519866030022968, 2557547.997492715716362, 0.0 ] } },
{ "type": "Feature", "properties": { "facility_id": "WARD_OFFICE_031", "facility_name": "Dariyapur", "facility_type": "Ward Office", "address": "2649, Delhi Chakla, Dariyapur, Ahmedabad, Gujarat 380001, India", "latitude": "23.036437", "longitude": " 72.59090800000001", "ward_id": "21", "ward_name": "DARIYAPUR" }, "geometry": { "type": "Point", "coordinates": [ 253128.077170960168587, 2549585.111012694425881, 0.0 ] } },
{ "type": "Feature", "properties": { "facility_id": "WARD_OFFICE_032", "facility_name": "Sardarnagar", "facility_type": "Ward Office", "address": "643, Shri Sadhujti L Vasvani Marg, Sindhi Ambawadi, Hansol, Ahmedabad, Gujarat 382475, India", "latitude": "23.08149", "longitude": " 72.63217099999997", "ward_id": "11", "ward_name": "SARDARNAGAR" }, "geometry": { "type": "Point", "coordinates": [ 257439.02733138599433, 2554506.430794126354158, 0.0 ] } },
{ "type": "Feature", "properties": { "facility_id": "WARD_OFFICE_033", "facility_name": "Isanpur", "facility_type": "Ward Office", "address": "Ramwadi-Anandwadi Road, Jay Krishna Society, Isanpur, Ahmedabad, Gujarat 380050, India", "latitude": "22.9806956", "longitude": " 72.60234400000002", "ward_id": "45", "ward_name": "ISANPUR" }, "geometry": { "type": "Point", "coordinates": [ 254199.409782449365593, 2543391.512784695718437, 0.0 ] } },
{ "type": "Feature", "properties": { "facility_id": "WARD_OFFICE_034", "facility_name": "Indrapuri", "facility_type": "Ward Office", "address": "CTM Flyover 2, Hatkeshwar, Ahmedabad, Gujarat 380008, India", "latitude": "22.989127", "longitude": "72.630652", "ward_id": "42", "ward_name": "INDRAPURI" }, "geometry": { "type": "Point", "coordinates": [ 257117.716446249483852, 2544278.243029288947582, 0.0 ] } },
{ "type": "Feature", "properties": { "facility_id": "WARD_OFFICE_035", "facility_name": "Vatva", "facility_type": "Ward Office", "address": "16/17, Vatva, Ahmedabad, Gujarat 382440, India", "latitude": "22.952902", "longitude": " 72.61703299999999", "ward_id": "47", "ward_name": "VATVA" }, "geometry": { "type": "Point", "coordinates": [ 255655.901858448807616, 2540288.366167892236263, 0.0 ] } },
{ "type": "Feature", "properties": { "facility_id": "WARD_OFFICE_036", "facility_name": "Behrampura", "facility_type": "Ward Office", "address": "Piplaj - Pirana Road, Calico Mills, Behrampura, Ahmedabad, Gujarat 380022, India", "latitude": "22.997042", "longitude": "72.574079", "ward_id": "35", "ward_name": "BAHERAMPURA" }, "geometry": { "type": "Point", "coordinates": [ 251330.520246065891115, 2545249.856313398573548, 0.0 ] } },
{ "type": "Feature", "properties": { "facility_id": "WARD_OFFICE_037", "facility_name": "Rajpur", "facility_type": "Ward Office", "address": "11, Industrial Area, Rakhial, Ahmedabad, Gujarat 380021, India", "latitude": "23.017831", "longitude": "72.624324", "ward_id": "38", "ward_name": "GOMTIPUR" }, "geometry": { "type": "Point", "coordinates": [ 256520.31971409698599, 2547468.180786895565689, 0.0 ] } },
{ "type": "Feature", "properties": { "facility_id": "WARD_OFFICE_038", "facility_name": "Amraivadi", "facility_type": "Ward Office", "address": "Ajod Dairy Road, Amraiwadi, Ahmedabad, Gujarat 380021, India", "latitude": "23.008722", "longitude": "72.628711", "ward_id": "39", "ward_name": "AMRAIWADI" }, "geometry": { "type": "Point", "coordinates": [ 256953.782268126757117, 2546451.921455452684313, 0.0 ] } },
{ "type": "Feature", "properties": { "facility_id": "WARD_OFFICE_039", "facility_name": "Bapunagar", "facility_type": "Ward Office", "address": "3, Taj Mohammad Khan Pathan Road, Soni ni chali, Virat Nagar, Rakhial, Ahmedabad, Gujarat 380024, India", "latitude": "23.025917", "longitude": "72.635723", "ward_id": "26", "ward_name": "BAPUNAGAR" }, "geometry": { "type": "Point", "coordinates": [ 257703.514031875180081, 2548344.91988990502432, 0.0 ] } },
{ "type": "Feature", "properties": { "facility_id": "WARD_OFFICE_040", "facility_name": "Vastral", "facility_type": "Ward Office", "address": "54, Ajay Tent No. 5 Road, Mahadev Nagar, Ahmedabad, Gujarat 382418, India", "latitude": "23.0002077", "longitude": " 72.64621139999997", "ward_id": "41", "ward_name": "VASTRAL" }, "geometry": { "type": "Point", "coordinates": [ 258733.05146602759487, 2545479.896295409649611, 0.0 ] } },
{ "type": "Feature", "properties": { "facility_id": "WARD_OFFICE_041", "facility_name": "Odhav", "facility_type": "Ward Office", "address": "63/A, Rabadi Vasahat Road, G I D C Industrial Area, Odhav, Ahmedabad, Gujarat 382415, India", "latitude": "23.0240978", "longitude": " 72.65000850000001", "ward_id": "40", "ward_name": "ODHAV" }, "geometry": { "type": "Point", "coordinates": [ 259164.865651606553001, 2548119.834734400734305, 0.0 ] } },
{ "type": "Feature", "properties": { "facility_id": "WARD_OFFICE_042", "facility_name": "Naroda", "facility_type": "Ward Office", "address": "Gujarat State Highway 68, GIDC Naroda, Ahmedabad, Gujarat 382330, India", "latitude": "23.074913", "longitude": "72.655845", "ward_id": "12", "ward_name": "NARODA" }, "geometry": { "type": "Point", "coordinates": [ 259853.456226160662482, 2553738.793547969777137, 0.0 ] } },
{ "type": "Feature", "properties": { "facility_id": "WARD_OFFICE_043", "facility_name": "Asarva", "facility_type": "Ward Office", "address": "Jahangirpura, Asarwa, Ahmedabad, Gujarat 380016, India", "latitude": "23.0414554", "longitude": " 72.601811", "ward_id": "15", "ward_name": "ASARWA" }, "geometry": { "type": "Point", "coordinates": [ 254254.931083340779878, 2550122.62907342845574, 0.0 ] } },
{ "type": "Feature", "properties": { "facility_id": "WARD_OFFICE_044", "facility_name": "SARASPUR", "facility_type": "Ward Office", "address": "Saraspur Bal Bhavan, Nr, Maniben K.K. Eye Hospital,", "latitude": "23.029737", "longitude": "72.611924", "ward_id": "27", "ward_name": "SARASPUR-RAKHIYAL" }, "geometry": { "type": "Point", "coordinates": [ 255270.459048690914642, 2548807.654339780565351, 0.0 ] } },
{ "type": "Feature", "properties": { "facility_id": "WARD_OFFICE_045", "facility_name": "NARANPURA", "facility_type": "Ward Office", "address": "Naranpura Ward Office, Nr.Kameshwar Mahadev Mandir, Naranpura,Ahmedabad", "latitude": "23.057469", "longitude": "72.556409", "ward_id": "09", "ward_name": "NARANPURA" }, "geometry": { "type": "Point", "coordinates": [ 249630.223912055662367, 2551973.484840503893793, 0.0 ] } },
{ "type": "Feature", "properties": { "facility_id": "WARD_OFFICE_046", "facility_name": "Shahpur Ward office", "facility_type": "Ward Office", "address": "Dudheshwar Sub Zonal Office, Dudheshwar water works compound, Shahibaug, Ahmedabad", "latitude": "23.051609", "longitude": "72.583484", "ward_id": "17", "ward_name": "SHAHPUR" }, "geometry": { "type": "Point", "coordinates": [ 252394.749569739418803, 2551278.249341333750635, 0.0 ] } },
{ "type": "Feature", "properties": { "facility_id": "WARD_OFFICE_047", "facility_name": "CHANDLODIA", "facility_type": "Ward Office", "address": "Old Nagarpalika Office", "latitude": "23.080566", "longitude": "72.551097", "ward_id": "02", "ward_name": "CHANDLODIA" }, "geometry": { "type": "Point", "coordinates": [ 249128.601897604617989, 2554541.078945433720946, 0.0 ] } }
]
}
