{
"type": "FeatureCollection",
"name": "standardized_cadastral",
"crs": { "type": "name", "properties": { "name": "urn:ogc:def:crs:EPSG::32643" } },
"features": [
{ "type": "Feature", "properties": { "parcel_id": "P001", "owner_name": "Rahul Patel", "land_use": "Residential", "area_sq_m": 120.0 }, "geometry": { "type": "Polygon", "coordinates": [ [ [ 253453.182849767355947, 2512303.963708655908704 ], [ 253555.95314946124563, 2512302.301807991694659 ], [ 253557.743982880027033, 2512413.065980056300759 ], [ 253454.974431490234565, 2512414.727937958668917 ], [ 253453.182849767355947, 2512303.963708655908704 ] ] ] } },
{ "type": "Feature", "properties": { "parcel_id": "P002", "owner_name": "Neha Shah", "land_use": "Commercial", "area_sq_m": 250.0 }, "geometry": { "type": "Polygon", "coordinates": [ [ [ 253555.95314946124563, 2512302.301807991694659 ], [ 253658.723396059067454, 2512300.6406016102992 ], [ 253660.513481176079949, 2512411.404716460965574 ], [ 253557.743982880027033, 2512413.065980056300759 ], [ 253555.95314946124563, 2512302.301807991694659 ] ] ] } },
{ "type": "Feature", "properties": { "parcel_id": "P003", "owner_name": "Amit Desai", "land_use": "Residential", "area_sq_m": 180.0 }, "geometry": { "type": "Polygon", "coordinates": [ [ [ 253658.723396059067454, 2512300.6406016102992 ], [ 253761.49358957936056, 2512298.980089510325342 ], [ 253763.282926396874245, 2512409.744147170335054 ], [ 253660.513481176079949, 2512411.404716460965574 ], [ 253658.723396059067454, 2512300.6406016102992 ] ] ] } }
]
}
